ONEWEB-0568             
1 56062U 23043S   25223.17133305  .00000089  00000+0  20033-3 0  9995
2 56062  87.9040 290.5613 0001967 106.6500 253.4847 13.16593890118183
ONEWEB-0574             
1 56063U 23043T   25222.76093795 -.00000007  00000+0 -49101-4 0  9998
2 56063  87.9264 305.9032 0002204 100.8582 259.2800 13.21827147117261
ONEWEB-0575             
1 56064U 23043U   25223.16498851  .00000045  00000+0  84523-4 0  9993
2 56064  87.9031 290.5688 0002368 106.6156 253.5235 13.16595345118178
ONEWEB-0576             
1 56065U 23043V   25222.91800631 -.00000046  00000+0 -15354-3 0  9997
2 56065  87.9042 290.6096 0002041 103.9945 256.1413 13.16594262118139
ONEWEB-0577             
1 56066U 23043W   25223.15232942  .00000019  00000+0  16664-4 0  9993
2 56066  87.9044 290.5642 0002590 107.8076 252.3338 13.16594709118191
ONEWEB-0578             
1 56067U 23043X   25223.20250930  .00000081  00000+0  16522-3 0  9998
2 56067  87.9260 305.8258 0001937 104.7569 255.3779 13.21826062117289
ONEWEB-0579             
1 56068U 23043Y   25223.19303610  .00000130  00000+0  28423-3 0  9999
2 56068  87.9263 305.8136 0002164  92.1070 268.0312 13.21828160117294
ONEWEB-0581             
1 56069U 23043Z   25223.15865355  .00000032  00000+0  50517-4 0  9996
2 56069  87.9025 290.5874 0002527  99.5614 260.5802 13.16595775118163
ONEWEB-0609             
1 56070U 23043AA  25223.09802214  .00000053  00000+0  10559-3 0  9990
2 56070  87.9085 321.0653 0001863  98.0286 262.1055 13.15549865115665
ONEWEB-0613             
1 56071U 23043AB  25223.09326576  .00000096  00000+0  22161-3 0  9992
2 56071  87.9087 321.0794 0002027  93.2496 266.8867 13.15550266115666
ONEWEB-0630             
1 56072U 23043AC  25223.24062933  .00000079  00000+0  17696-3 0  9992
2 56072  87.9077 321.0259 0001954  90.1377 269.9977 13.15547750115675
ONEWEB-0632             
1 56073U 23043AD  25223.23587586  .00000204  00000+0  50913-3 0  9997
2 56073  87.9079 321.0467 0002165  99.1622 260.9753 13.15546699115670
ONEWEB-0633             
1 56074U 23043AE  25223.00137547 -.00000095  00000+0 -28760-3 0  9996
2 56074  87.9072 321.0585 0001772  87.0273 273.1060 13.15547237115627
ONEWEB-0634             
1 56075U 23043AF  25223.29132968 -.00000035  00000+0 -12825-3 0  9999
2 56075  87.9089 321.0399 0001629 100.3596 259.7718 13.15547088115654
ONEWEB-0635             
1 56076U 23043AG  25223.28658847  .00000056  00000+0  11471-3 0  9995
2 56076  87.9060 321.0116 0002256 101.1142 259.0242 13.15549030115681
ONEWEB-0636             
1 56077U 23043AH  25223.27865641  .00000085  00000+0  19133-3 0  9992
2 56077  87.9070 321.0271 0002163 100.7207 259.4167 13.15547258115667
ONEWEB-0637             
1 56078U 23043AJ  25223.27234380  .00000183  00000+0  45258-3 0  9999
2 56078  87.9079 321.0400 0002067 109.4197 250.7157 13.15550055115682
