[{"OBJECT_NAME":"ONEWEB-0568","OBJECT_ID":"2023-043S","EPOCH":"2025-08-11T04:06:43.175520","MEAN_MOTION":13.1659389,"ECCENTRICITY":0.0001967,"INCLINATION":87.904,"RA_OF_ASC_NODE":290.5613,"ARG_OF_PERICENTER":106.65,"MEAN_ANOMALY":253.4847,"EPHEMERIS_TYPE":0,"CLASSIFICATION_TYPE":"U","NORAD_CAT_ID":56062,"ELEMENT_SET_NO":999,"REV_AT_EPOCH":11818,"BSTAR":0.00020033,"MEAN_MOTION_DOT":8.9e-7,"MEAN_MOTION_DDOT":0},{"OBJECT_NAME":"ONEWEB-0574","OBJECT_ID":"2023-043T","EPOCH":"2025-08-10T18:15:45.038880","MEAN_MOTION":13.21827147,"ECCENTRICITY":0.0002204,"INCLINATION":87.9264,"RA_OF_ASC_NODE":305.9032,"ARG_OF_PERICENTER":100.8582,"MEAN_ANOMALY":259.28,"EPHEMERIS_TYPE":0,"CLASSIFICATION_TYPE":"U","NORAD_CAT_ID":56063,"ELEMENT_SET_NO":999,"REV_AT_EPOCH":11726,"BSTAR":-4.9101e-5,"MEAN_MOTION_DOT":-7.0e-8,"MEAN_MOTION_DDOT":0},{"OBJECT_NAME":"ONEWEB-0575","OBJECT_ID":"2023-043U","EPOCH":"2025-08-11T03:57:35.007264","MEAN_MOTION":13.16595345,"ECCENTRICITY":0.0002368,"INCLINATION":87.9031,"RA_OF_ASC_NODE":290.5688,"ARG_OF_PERICENTER":106.6156,"MEAN_ANOMALY":253.5235,"EPHEMERIS_TYPE":0,"CLASSIFICATION_TYPE":"U","NORAD_CAT_ID":56064,"ELEMENT_SET_NO":999,"REV_AT_EPOCH":11817,"BSTAR":8.4523e-5,"MEAN_MOTION_DOT":4.5e-7,"MEAN_MOTION_DDOT":0},{"OBJECT_NAME":"ONEWEB-0576","OBJECT_ID":"2023-043V","EPOCH":"2025-08-10T22:01:55.745184","MEAN_MOTION":13.16594262,"ECCENTRICITY":0.0002041,"INCLINATION":87.9042,"RA_OF_ASC_NODE":290.6096,"ARG_OF_PERICENTER":103.9945,"MEAN_ANOMALY":256.1413,"EPHEMERIS_TYPE":0,"CLASSIFICATION_TYPE":"U","NORAD_CAT_ID":56065,"ELEMENT_SET_NO":999,"REV_AT_EPOCH":11813,"BSTAR":-0.00015354,"MEAN_MOTION_DOT":-4.6e-7,"MEAN_MOTION_DDOT":0},{"OBJECT_NAME":"ONEWEB-0577","OBJECT_ID":"2023-043W","EPOCH":"2025-08-11T03:39:21.261888","MEAN_MOTION":13.16594709,"ECCENTRICITY":0.000259,"INCLINATION":87.9044,"RA_OF_ASC_NODE":290.5642,"ARG_OF_PERICENTER":107.8076,"MEAN_ANOMALY":252.3338,"EPHEMERIS_TYPE":0,"CLASSIFICATION_TYPE":"U","NORAD_CAT_ID":56066,"ELEMENT_SET_NO":999,"REV_AT_EPOCH":11819,"BSTAR":1.6664e-5,"MEAN_MOTION_DOT":1.9e-7,"MEAN_MOTION_DDOT":0},{"OBJECT_NAME":"ONEWEB-0578","OBJECT_ID":"2023-043X","EPOCH":"2025-08-11T04:51:36.803520","MEAN_MOTION":13.21826062,"ECCENTRICITY":0.0001937,"INCLINATION":87.926,"RA_OF_ASC_NODE":305.8258,"ARG_OF_PERICENTER":104.7569,"MEAN_ANOMALY":255.3779,"EPHEMERIS_TYPE":0,"CLASSIFICATION_TYPE":"U","NORAD_CAT_ID":56067,"ELEMENT_SET_NO":999,"REV_AT_EPOCH":11728,"BSTAR":0.00016522,"MEAN_MOTION_DOT":8.1e-7,"MEAN_MOTION_DDOT":0},{"OBJECT_NAME":"ONEWEB-0579","OBJECT_ID":"2023-043Y","EPOCH":"2025-08-11T04:37:58.319040","MEAN_MOTION":13.2182816,"ECCENTRICITY":0.0002164,"INCLINATION":87.9263,"RA_OF_ASC_NODE":305.8136,"ARG_OF_PERICENTER":92.107,"MEAN_ANOMALY":268.0312,"EPHEMERIS_TYPE":0,"CLASSIFICATION_TYPE":"U","NORAD_CAT_ID":56068,"ELEMENT_SET_NO":999,"REV_AT_EPOCH":11729,"BSTAR":0.00028423,"MEAN_MOTION_DOT":1.3e-6,"MEAN_MOTION_DDOT":0},{"OBJECT_NAME":"ONEWEB-0581","OBJECT_ID":"2023-043Z","EPOCH":"2025-08-11T03:48:27.666720","MEAN_MOTION":13.16595775,"ECCENTRICITY":0.0002527,"INCLINATION":87.9025,"RA_OF_ASC_NODE":290.5874,"ARG_OF_PERICENTER":99.5614,"MEAN_ANOMALY":260.5802,"EPHEMERIS_TYPE":0,"CLASSIFICATION_TYPE":"U","NORAD_CAT_ID":56069,"ELEMENT_SET_NO":999,"REV_AT_EPOCH":11816,"BSTAR":5.0517e-5,"MEAN_MOTION_DOT":3.2e-7,"MEAN_MOTION_DDOT":0},{"OBJECT_NAME":"ONEWEB-0609","OBJECT_ID":"2023-043AA","EPOCH":"2025-08-11T02:21:09.112896","MEAN_MOTION":13.15549865,"ECCENTRICITY":0.0001863,"INCLINATION":87.9085,"RA_OF_ASC_NODE":321.0653,"ARG_OF_PERICENTER":98.0286,"MEAN_ANOMALY":262.1055,"EPHEMERIS_TYPE":0,"CLASSIFICATION_TYPE":"U","NORAD_CAT_ID":56070,"ELEMENT_SET_NO":999,"REV_AT_EPOCH":11566,"BSTAR":0.00010559,"MEAN_MOTION_DOT":5.3e-7,"MEAN_MOTION_DDOT":0},{"OBJECT_NAME":"ONEWEB-0613","OBJECT_ID":"2023-043AB","EPOCH":"2025-08-11T02:14:18.161664","MEAN_MOTION":13.15550266,"ECCENTRICITY":0.0002027,"INCLINATION":87.9087,"RA_OF_ASC_NODE":321.0794,"ARG_OF_PERICENTER":93.2496,"MEAN_ANOMALY":266.8867,"EPHEMERIS_TYPE":0,"CLASSIFICATION_TYPE":"U","NORAD_CAT_ID":56071,"ELEMENT_SET_NO":999,"REV_AT_EPOCH":11566,"BSTAR":0.00022161,"MEAN_MOTION_DOT":9.6e-7,"MEAN_MOTION_DDOT":0},{"OBJECT_NAME":"ONEWEB-0630","OBJECT_ID":"2023-043AC","EPOCH":"2025-08-11T05:46:30.374112","MEAN_MOTION":13.1554775,"ECCENTRICITY":0.0001954,"INCLINATION":87.9077,"RA_OF_ASC_NODE":321.0259,"ARG_OF_PERICENTER":90.1377,"MEAN_ANOMALY":269.9977,"EPHEMERIS_TYPE":0,"CLASSIFICATION_TYPE":"U","NORAD_CAT_ID":56072,"ELEMENT_SET_NO":999,"REV_AT_EPOCH":11567,"BSTAR":0.00017696,"MEAN_MOTION_DOT":7.9e-7,"MEAN_MOTION_DDOT":0},{"OBJECT_NAME":"ONEWEB-0632","OBJECT_ID":"2023-043AD","EPOCH":"2025-08-11T05:39:39.674304","MEAN_MOTION":13.15546699,"ECCENTRICITY":0.0002165,"INCLINATION":87.9079,"RA_OF_ASC_NODE":321.0467,"ARG_OF_PERICENTER":99.1622,"MEAN_ANOMALY":260.9753,"EPHEMERIS_TYPE":0,"CLASSIFICATION_TYPE":"U","NORAD_CAT_ID":56073,"ELEMENT_SET_NO":999,"REV_AT_EPOCH":11567,"BSTAR":0.00050913,"MEAN_MOTION_DOT":2.04e-6,"MEAN_MOTION_DDOT":0},{"OBJECT_NAME":"ONEWEB-0633","OBJECT_ID":"2023-043AE","EPOCH":"2025-08-11T00:01:58.840608","MEAN_MOTION":13.15547237,"ECCENTRICITY":0.0001772,"INCLINATION":87.9072,"RA_OF_ASC_NODE":321.0585,"ARG_OF_PERICENTER":87.0273,"MEAN_ANOMALY":273.106,"EPHEMERIS_TYPE":0,"CLASSIFICATION_TYPE":"U","NORAD_CAT_ID":56074,"ELEMENT_SET_NO":999,"REV_AT_EPOCH":11562,"BSTAR":-0.0002876,"MEAN_MOTION_DOT":-9.5e-7,"MEAN_MOTION_DDOT":0},{"OBJECT_NAME":"ONEWEB-0634","OBJECT_ID":"2023-043AF","EPOCH":"2025-08-11T06:59:30.884352","MEAN_MOTION":13.15547088,"ECCENTRICITY":0.0001629,"INCLINATION":87.9089,"RA_OF_ASC_NODE":321.0399,"ARG_OF_PERICENTER":100.3596,"MEAN_ANOMALY":259.7718,"EPHEMERIS_TYPE":0,"CLASSIFICATION_TYPE":"U","NORAD_CAT_ID":56075,"ELEMENT_SET_NO":999,"REV_AT_EPOCH":11565,"BSTAR":-0.00012825,"MEAN_MOTION_DOT":-3.5e-7,"MEAN_MOTION_DDOT":0},{"OBJECT_NAME":"ONEWEB-0635","OBJECT_ID":"2023-043AG","EPOCH":"2025-08-11T06:52:41.243808","MEAN_MOTION":13.1554903,"ECCENTRICITY":0.0002256,"INCLINATION":87.906,"RA_OF_ASC_NODE":321.0116,"ARG_OF_PERICENTER":101.1142,"MEAN_ANOMALY":259.0242,"EPHEMERIS_TYPE":0,"CLASSIFICATION_TYPE":"U","NORAD_CAT_ID":56076,"ELEMENT_SET_NO":999,"REV_AT_EPOCH":11568,"BSTAR":0.00011471,"MEAN_MOTION_DOT":5.6e-7,"MEAN_MOTION_DDOT":0},{"OBJECT_NAME":"ONEWEB-0636","OBJECT_ID":"2023-043AH","EPOCH":"2025-08-11T06:41:15.913824","MEAN_MOTION":13.15547258,"ECCENTRICITY":0.0002163,"INCLINATION":87.907,"RA_OF_ASC_NODE":321.0271,"ARG_OF_PERICENTER":100.7207,"MEAN_ANOMALY":259.4167,"EPHEMERIS_TYPE":0,"CLASSIFICATION_TYPE":"U","NORAD_CAT_ID":56077,"ELEMENT_SET_NO":999,"REV_AT_EPOCH":11566,"BSTAR":0.00019133,"MEAN_MOTION_DOT":8.5e-7,"MEAN_MOTION_DDOT":0},{"OBJECT_NAME":"ONEWEB-0637","OBJECT_ID":"2023-043AJ","EPOCH":"2025-08-11T06:32:10.504320","MEAN_MOTION":13.15550055,"ECCENTRICITY":0.0002067,"INCLINATION":87.9079,"RA_OF_ASC_NODE":321.04,"ARG_OF_PERICENTER":109.4197,"MEAN_ANOMALY":250.7157,"EPHEMERIS_TYPE":0,"CLASSIFICATION_TYPE":"U","NORAD_CAT_ID":56078,"ELEMENT_SET_NO":999,"REV_AT_EPOCH":11568,"BSTAR":0.00045258,"MEAN_MOTION_DOT":1.83e-6,"MEAN_MOTION_DDOT":0}]
